0 CZ-4B DEB
1 35573U 08053J   13282.57341554  .00006169  00000-0  12275-2 0  5806
2 35573 097.8151 199.8444 0191567 344.0626 139.4283 14.51379356255397
0 CZ-4B DEB
1 35573U 08053J   13287.26675444  .00005517  00000-0  10994-2 0  5829
2 35573 097.8158 204.2138 0191007 329.4373 182.4447 14.51430740256071
0 CZ-4B DEB
1 35573U 08053J   13289.26639666  .00006911  00000-0  13742-2 0  5831
2 35573 097.8164 206.0753 0190747 323.1987 191.0014 14.51459375256366
0 CZ-4B DEB
1 35573U 08053J   13292.00462069  .00006010  00000-0  11966-2 0  5845
2 35573 097.8168 208.6248 0190468 314.6504 099.1199 14.51492179256751
0 CZ-4B DEB
1 35573U 08053J   13294.56882179  .00007659  00000-0  15218-2 0  5851
2 35573 097.8163 211.0126 0190186 306.6461 178.2115 14.51520812257135
